{"fetched_at":"2026-03-30T06:02:59Z","count":15439,"tles":[{"name":"STARLINK-30816","line1":"1 58162U 23166N   26087.52291132  .00001048  00000+0  47518-4 0  9999","line2":"2 58162  53.1600 132.0708 0001234  74.5855 285.5282 15.30190800136069","category":"Starlink"}]}